NORAD_CAT_ID,OBJECT_NAME,OBJECT_TYPE,EPOCH,MEAN_MOTION,ECCENTRICITY,INCLINATION,RA_OF_ASC_NODE,ARG_OF_PERICENTER,MEAN_ANOMALY,BSTAR,MEAN_MOTION_DOT,MEAN_MOTION_DDOT,TLE_LINE0,TLE_LINE1,TLE_LINE2,SEMIMAJOR_AXIS,PERIOD,APOGEE,PERIGEE,DECAYED
52346.0,STARLINK-3812,PAYLOAD,2024-05-30 11:35:26,15.08845852,0.0001149,53.217,229.0457,70.2537,289.8579,0.0001047,1.379e-05,0.0,0 STARLINK-3812,1 52346U 22045R   24151.48294564  .00001379  00000-0  10470-3 0  9993,2 52346  53.2170 229.0457 0001149  70.2537 289.8579 15.08845852117922,6917.863,95.437,540.522,538.933,0.0
52346.0,STARLINK-3812,PAYLOAD,2024-05-31 05:04:40,15.08845416,0.0001157,53.2168,225.7753,71.8717,288.2401,9.6081e-05,1.242e-05,0.0,0 STARLINK-3812,1 52346U 22045R   24152.21158426  .00001242  00000-0  96081-4 0  9993,2 52346  53.2168 225.7753 0001157  71.8717 288.2401 15.08845416118033,6917.864,95.437,540.529,538.928,0.0
52346.0,STARLINK-3812,PAYLOAD,2024-05-31 11:26:13,15.08842776,9.8e-05,53.2166,224.5839,91.1167,268.9938,6.2536e-05,7.08e-06,0.0,0 STARLINK-3812,1 52346U 22045R   24152.47654501  .00000708  00000-0  62536-4 0  9990,2 52346  53.2166 224.5839 0000980  91.1167 268.9938 15.08842776118070,6917.872,95.437,540.415,539.059,0.0
52346.0,STARLINK-3812,PAYLOAD,2024-05-31 14:36:59,15.08843799,9.72e-05,53.2165,223.9888,94.6157,265.4946,6.8669e-05,8.05e-06,0.0,0 STARLINK-3812,1 52346U 22045R   24152.60902369  .00000805  00000-0  68669-4 0  9994,2 52346  53.2165 223.9888 0000972  94.6157 265.4946 15.08843799118093,6917.869,95.437,540.406,539.061,0.0
52346.0,STARLINK-3812,PAYLOAD,2024-06-01 04:55:28,15.08839986,0.0001148,53.2176,221.3125,103.029,257.083,-5.0014e-06,-3.67e-06,0.0,0 STARLINK-3812,1 52346U 22045R   24153.20518782 -.00000367  00000-0 -50014-5 0  9994,2 52346  53.2176 221.3125 0001148 103.0290 257.0830 15.08839986118182,6917.88,95.438,540.54,538.951,0.0
52346.0,STARLINK-3812,PAYLOAD,2024-06-01 11:17:01,15.0883556,0.0001028,53.2168,220.1239,92.6271,267.4839,-3.2721e-05,-8.08e-06,0.0,0 STARLINK-3812,1 52346U 22045R   24153.47015202 -.00000808  00000-0 -32721-4 0  9996,2 52346  53.2168 220.1239 0001028  92.6271 267.4839 15.08835560118228,6917.894,95.438,540.47,539.048,0.0
52346.0,STARLINK-3812,PAYLOAD,2024-06-02 04:46:15,15.08832433,0.0001115,53.2167,216.8529,95.8089,264.303,5.2584e-05,5.49e-06,0.0,0 STARLINK-3812,1 52346U 22045R   24154.19879313  .00000549  00000-0  52584-4 0  9996,2 52346  53.2167 216.8529 0001115  95.8089 264.3030 15.08832433118337,6917.904,95.438,540.54,538.997,0.0
52346.0,STARLINK-3812,PAYLOAD,2024-06-02 11:07:48,15.08832732,0.0001056,53.2162,215.6641,91.8844,268.2269,5.1354e-05,5.29e-06,0.0,0 STARLINK-3812,1 52346U 22045R   24154.46375421  .00000529  00000-0  51354-4 0  9999,2 52346  53.2162 215.6641 0001056  91.8844 268.2269 15.08832732118376,6917.903,95.438,540.498,539.037,0.0
52346.0,STARLINK-3812,PAYLOAD,2024-06-02 20:40:06,15.08833607,0.0001139,53.2165,213.8796,94.4031,265.7091,0.0001839,2.64e-05,0.0,0 STARLINK-3812,1 52346U 22045R   24154.86119149  .00002640  00000-0  18390-3 0  9994,2 52346  53.2165 213.8796 0001139  94.4031 265.7091 15.08833607118433,6917.9,95.438,540.553,538.977,0.0
52346.0,STARLINK-3812,PAYLOAD,2024-06-03 10:58:35,15.08834885,0.0001227,53.2173,211.2044,92.4092,267.7041,0.00010345,1.359e-05,0.0,0 STARLINK-3812,1 52346U 22045R   24155.45735523  .00001359  00000-0  10345-3 0  9998,2 52346  53.2173 211.2044 0001227  92.4092 267.7041 15.08834885118529,6917.896,95.438,540.61,538.912,0.0
52346.0,STARLINK-3812,PAYLOAD,2024-06-03 20:30:53,15.08846121,0.0001251,53.2177,209.4203,90.6487,269.4649,0.00015517,2.183e-05,0.0,0 STARLINK-3812,1 52346U 22045R   24155.85478710  .00002183  00000-0  15517-3 0  9996,2 52346  53.2177 209.4203 0001251  90.6487 269.4649 15.08846121118589,6917.862,95.437,540.592,538.861,0.0
52346.0,STARLINK-3812,PAYLOAD,2024-06-04 12:24:45,15.0884052,0.0001283,53.2161,206.4453,82.6925,277.4213,8.9955e-05,1.144e-05,0.0,0 STARLINK-3812,1 52346U 22045R   24156.51719350  .00001144  00000-0  89955-4 0  9992,2 52346  53.2161 206.4453 0001283  82.6925 277.4213 15.08840520118683,6917.879,95.438,540.631,538.856,0.0
52346.0,STARLINK-3812,PAYLOAD,2024-06-05 10:40:09,15.08841833,0.0001304,53.2163,202.2809,74.4709,285.6427,1.8818e-05,1.2e-07,0.0,0 STARLINK-3812,1 52346U 22045R   24157.44455485  .00000012  00000-0  18818-4 0  9994,2 52346  53.2163 202.2809 0001304  74.4709 285.6427 15.08841833118829,6917.875,95.437,540.642,538.838,0.0
52346.0,STARLINK-3812,PAYLOAD,2024-06-05 20:12:27,15.08853383,0.0001274,53.2164,200.4967,74.9437,285.1696,-1.9597e-05,-6e-06,0.0,0 STARLINK-3812,1 52346U 22045R   24157.84198658 -.00000600  00000-0 -19597-4 0  9994,2 52346  53.2164 200.4967 0001274  74.9437 285.1696 15.08853383118886,6917.839,95.437,540.586,538.823,0.0
52346.0,STARLINK-3812,PAYLOAD,2024-06-06 08:55:33,15.08834121,0.0001092,53.2159,198.1158,86.4715,273.6401,5.7454e-05,6.27e-06,0.0,0 STARLINK-3812,1 52346U 22045R   24158.37191660  .00000627  00000-0  57454-4 0  9990,2 52346  53.2159 198.1158 0001092  86.4715 273.6401 15.08834121118964,6917.898,95.438,540.519,539.008,0.0
52346.0,STARLINK-3812,PAYLOAD,2024-06-07 08:46:20,15.08841081,0.0001312,53.2166,193.6575,91.1028,269.0114,7.0312e-05,8.31e-06,0.0,0 STARLINK-3812,1 52346U 22045R   24159.36551270  .00000831  00000-0  70312-4 0  9992,2 52346  53.2166 193.6575 0001312  91.1028 269.0114 15.08841081119111,6917.877,95.437,540.65,538.834,0.0
52346.0,STARLINK-3812,PAYLOAD,2024-06-08 08:37:07,15.08842244,0.0001228,53.2156,189.1957,89.6731,270.4401,0.00012037,1.628e-05,0.0,0 STARLINK-3812,1 52346U 22045R   24160.35910977  .00001628  00000-0  12037-3 0  9990,2 52346  53.2156 189.1957 0001228  89.6731 270.4401 15.08842244119266,6917.874,95.437,540.588,538.889,0.0
52346.0,STARLINK-3812,PAYLOAD,2024-06-09 05:17:08,15.08833764,0.0001339,53.2159,185.3304,92.3103,267.8042,-1.4741e-05,-5.22e-06,0.0,0 STARLINK-3812,1 52346U 22045R   24161.22023933 -.00000522  00000-0 -14741-4 0  9993,2 52346  53.2159 185.3304 0001339  92.3103 267.8042 15.08833764119392,6917.899,95.438,540.691,538.838,0.0
52346.0,STARLINK-3812,PAYLOAD,2024-06-09 06:52:31,15.0883176,0.0001307,53.2155,185.0327,91.4217,268.6925,-3.4736e-05,-8.41e-06,0.0,0 STARLINK-3812,1 52346U 22045R   24161.28648110 -.00000841  00000-0 -34736-4 0  9999,2 52346  53.2155 185.0327 0001307  91.4217 268.6925 15.08831760119406,6917.906,95.438,540.675,538.866,0.0
52346.0,STARLINK-3812,PAYLOAD,2024-06-09 18:00:14,15.08832458,0.0001304,53.2155,182.9507,91.134,268.9802,-2.7459e-05,-7.25e-06,0.0,0 STARLINK-3812,1 52346U 22045R   24161.75016211 -.00000725  00000-0 -27459-4 0  9997,2 52346  53.2155 182.9507 0001304  91.1340 268.9802 15.08832458119472,6917.903,95.438,540.671,538.866,0.0
52346.0,STARLINK-3812,PAYLOAD,2024-06-10 08:18:42,15.08836567,0.0001225,53.2153,180.2757,88.3469,271.7663,1.5701e-05,-3.8e-07,0.0,0 STARLINK-3812,1 52346U 22045R   24162.34632009 -.00000038  00000-0  15701-4 0  9995,2 52346  53.2153 180.2757 0001225  88.3469 271.7663 15.08836567119562,6917.891,95.438,540.603,538.908,0.0
52346.0,STARLINK-3812,PAYLOAD,2024-06-10 17:51:00,15.08838733,0.0001218,53.2152,178.4913,87.1695,272.9436,5.0216e-05,5.11e-06,0.0,0 STARLINK-3812,1 52346U 22045R   24162.74375848  .00000511  00000-0  50216-4 0  9999,2 52346  53.2152 178.4913 0001218  87.1695 272.9436 15.08838733119629,6917.884,95.438,540.592,538.907,0.0
52346.0,STARLINK-3812,PAYLOAD,2024-06-11 08:09:28,15.08836712,0.0001232,53.2157,175.816,94.5413,265.572,0.0001563,2.2e-05,0.0,0 STARLINK-3812,1 52346U 22045R   24163.33991828  .00002200  00000-0  15630-3 0  9994,2 52346  53.2157 175.8160 0001232  94.5413 265.5720 15.08836712119714,6917.89,95.438,540.608,538.903,0.0
52346.0,STARLINK-3812,PAYLOAD,2024-06-12 04:49:30,15.0883777,0.0001398,53.2171,171.9518,96.2773,263.8378,5.7821e-05,6.32e-06,0.0,0 STARLINK-3812,1 52346U 22045R   24164.20104211  .00000632  00000-0  57821-4 0  9999,2 52346  53.2171 171.9518 0001398  96.2773 263.8378 15.08837770119844,6917.887,95.438,540.719,538.785,0.0
52346.0,STARLINK-3812,PAYLOAD,2024-06-12 06:24:53,15.08838193,0.00014,53.2169,171.6544,96.2972,263.8179,5.7404e-05,6.26e-06,0.0,0 STARLINK-3812,1 52346U 22045R   24164.26728193  .00000626  00000-0  57404-4 0  9996,2 52346  53.2169 171.6544 0001400  96.2972 263.8179 15.08838193119852,6917.886,95.438,540.719,538.782,0.0
52346.0,STARLINK-3812,PAYLOAD,2024-06-12 17:32:34,15.0884181,0.0001348,53.2168,169.5715,88.0093,272.1054,6.6336e-05,7.68e-06,0.0,0 STARLINK-3812,1 52346U 22045R   24164.73095885  .00000768  00000-0  66336-4 0  9994,2 52346  53.2168 169.5715 0001348  88.0093 272.1054 15.08841810119924,6917.875,95.437,540.672,538.807,0.0
52346.0,STARLINK-3812,PAYLOAD,2024-06-13 07:51:03,15.08843042,0.0001372,53.2165,166.896,88.8507,271.2643,-3.3525e-07,-2.93e-06,0.0,0 STARLINK-3812,1 52346U 22045R   24165.32711931 -.00000293  00000-0 -33525-6 0  9998,2 52346  53.2165 166.8960 0001372  88.8507 271.2643 15.08843042120013,6917.871,95.437,540.685,538.787,0.0
52346.0,STARLINK-3812,PAYLOAD,2024-06-13 17:23:20,15.08852456,0.0001347,53.2164,165.1117,95.2228,264.8918,9.0995e-05,1.161e-05,0.0,0 STARLINK-3812,1 52346U 22045R   24165.72454795  .00001161  00000-0  90995-4 0  9999,2 52346  53.2164 165.1117 0001347  95.2228 264.8918 15.08852456120070,6917.842,95.437,540.639,538.775,0.0
52346.0,STARLINK-3812,PAYLOAD,2024-06-14 06:06:25,15.08857376,0.0001306,53.216,162.7322,89.2092,270.9049,0.00018512,2.661e-05,0.0,0 STARLINK-3812,1 52346U 22045R   24166.25445785  .00002661  00000-0  18512-3 0  9997,2 52346  53.2160 162.7322 0001306  89.2092 270.9049 15.08857376120152,6917.827,95.436,540.596,538.789,0.0
52346.0,STARLINK-3812,PAYLOAD,2024-06-14 17:14:06,15.0885678,0.0001249,53.2159,160.6499,90.236,269.8775,0.00012548,1.711e-05,0.0,0 STARLINK-3812,1 52346U 22045R   24166.71813513  .00001711  00000-0  12548-3 0  9994,2 52346  53.2159 160.6499 0001249  90.2360 269.8775 15.08856780120227,6917.829,95.436,540.558,538.83,0.0
